{
    "links": {
        "self": "http://www.neowsapp.com/rest/v1/neo/3775043?api_key=iIulBulltgU6a56xZRHN4H3l9WmuAYTsLGpBGhQ2"
    },
    "id": "3775043",
    "neo_reference_id": "3775043",
    "name": "(2017 KO27)",
    "designation": "2017 KO27",
    "nasa_jpl_url": "http://ssd.jpl.nasa.gov/sbdb.cgi?sstr=3775043",
    "absolute_magnitude_h": 22.9,
    "estimated_diameter": {
        "kilometers": {
            "estimated_diameter_min": 0.0699125232,
            "estimated_diameter_max": 0.1563291544
        },
        "meters": {
            "estimated_diameter_min": 69.9125232246,
            "estimated_diameter_max": 156.3291544087
        },
        "miles": {
            "estimated_diameter_min": 0.0434416145,
            "estimated_diameter_max": 0.097138403
        },
        "feet": {
            "estimated_diameter_min": 229.3718026961,
            "estimated_diameter_max": 512.8909429502
        }
    },
    "is_potentially_hazardous_asteroid": false,
    "close_approach_data": [
        {
            "close_approach_date": "2006-05-21",
            "close_approach_date_full": "2006-May-21 23:06",
            "epoch_date_close_approach": 1148252760000,
            "relative_velocity": {
                "kilometers_per_second": "13.9715238896",
                "kilometers_per_hour": "50297.4860026028",
                "miles_per_hour": "31252.9017886729"
            },
            "miss_distance": {
                "astronomical": "0.4693570337",
                "lunar": "182.5798861093",
                "kilometers": "70214812.511038219",
                "miles": "43629461.3693526622"
            },
            "orbiting_body": "Earth"
        },
        {
            "close_approach_date": "2017-05-29",
            "close_approach_date_full": "2017-May-29 00:11",
            "epoch_date_close_approach": 1496016660000,
            "relative_velocity": {
                "kilometers_per_second": "17.0166606446",
                "kilometers_per_hour": "61259.9783205568",
                "miles_per_hour": "38064.5681959037"
            },
            "miss_distance": {
                "astronomical": "0.1422521869",
                "lunar": "55.3361007041",
                "kilometers": "21280624.163081903",
                "miles": "13223166.6885521414"
            },
            "orbiting_body": "Earth"
        }
    ],
    "orbital_data": {
        "orbit_id": "7",
        "orbit_determination_date": "2017-06-18 06:17:35",
        "first_observation_date": "2017-05-25",
        "last_observation_date": "2017-06-17",
        "data_arc_in_days": 23,
        "observations_used": 66,
        "orbit_uncertainty": "7",
        "minimum_orbit_intersection": ".132613",
        "jupiter_tisserand_invariant": "3.989",
        "epoch_osculation": "2459000.5",
        "eccentricity": ".4092598607350107",
        "semi_major_axis": "1.699794488259294",
        "inclination": "27.2222822837354",
        "ascending_node_longitude": "73.01700515519052",
        "orbital_period": "809.4556371071084",
        "perihelion_distance": "1.004136832716157",
        "perihelion_argument": "120.6303994418927",
        "aphelion_distance": "2.395452143802431",
        "perihelion_time": "2458665.584065747837",
        "mean_anomaly": "148.9516297170772",
        "mean_motion": ".4447433355169337",
        "equinox": "J2000",
        "orbit_class": {
            "orbit_class_type": "APO",
            "orbit_class_description": "Near-Earth asteroid orbits which cross the Earth’s orbit similar to that of 1862 Apollo",
            "orbit_class_range": "a (semi-major axis) > 1.0 AU; q (perihelion) < 1.017 AU"
        }
    },
    "is_sentry_object": false
}